{
"type": "FeatureCollection",
"crs": { "type": "name", "properties": { "name": "urn:ogc:def:crs:OGC:1.3:CRS84" } },
                                                                                
"features": [
{ "type": "Feature", "properties": { "EC_NAME": "HILLCREST HS", "ADDRESS": "160-05 HIGHLAND AVENUE", "CITY": "JAMAICA", "ZIP_CODE": 11432.0, "BOROUGH": "QN" }, "geometry": { "type": "Point", "coordinates": [ -73.802579079762566, 40.709673389306609 ] } },
{ "type": "Feature", "properties": { "EC_NAME": "HS OF GRAPHIC COMM ARTS", "ADDRESS": "439 WEST 49 STREET", "CITY": "NEW YORK", "ZIP_CODE": 10019.0, "BOROUGH": "MN" }, "geometry": { "type": "Point", "coordinates": [ -73.990721228991703, 40.763694116841492 ] } },
{ "type": "Feature", "properties": { "EC_NAME": "NEWCOMERS HS", "ADDRESS": "28-01 41ST AVENUE", "CITY": "LONG ISLAND CITY", "ZIP_CODE": 11101.0, "BOROUGH": "QN" }, "geometry": { "type": "Point", "coordinates": [ -73.936812440765621, 40.751584266345212 ] } },
{ "type": "Feature", "properties": { "EC_NAME": "JOHN JAY HS", "ADDRESS": "237 7TH AVENUE", "CITY": "BROOKLYN", "ZIP_CODE": 11215.0, "BOROUGH": "BK" }, "geometry": { "type": "Point", "coordinates": [ -73.978856011518971, 40.669393015907346 ] } },
{ "type": "Feature", "properties": { "EC_NAME": "BROOKLYN TECH HS", "ADDRESS": "29 FT GREENE PLACE", "CITY": "BROOKLYN", "ZIP_CODE": 11217.0, "BOROUGH": "BK" }, "geometry": { "type": "Point", "coordinates": [ -73.976453038660054, 40.689009324593904 ] } },
{ "type": "Feature", "properties": { "EC_NAME": "NYC TECHNICAL COLLEGE", "ADDRESS": "300 JAY ST", "CITY": "BROOKLYN", "ZIP_CODE": 11201.0, "BOROUGH": "BK" }, "geometry": { "type": "Point", "coordinates": [ -73.9874607530856, 40.69555453979639 ] } },
{ "type": "Feature", "properties": { "EC_NAME": "HS OF LAW, GOV'T & JUSTICE", "ADDRESS": "244 EAST 163RD STREET", "CITY": "BRONX", "ZIP_CODE": 10451.0, "BOROUGH": "BX" }, "geometry": { "type": "Point", "coordinates": [ -73.91899544462423, 40.827551508116485 ] } },
{ "type": "Feature", "properties": { "EC_NAME": "WILLIAM H. TAFT HS", "ADDRESS": "240 EAST 172 STREET", "CITY": "BRONX", "ZIP_CODE": 10457.0, "BOROUGH": "BX" }, "geometry": { "type": "Point", "coordinates": [ -73.911205155789204, 40.839935180730542 ] } },
{ "type": "Feature", "properties": { "EC_NAME": "IS 201", "ADDRESS": "730 BRYANT AVENUE", "CITY": "BRONX", "ZIP_CODE": 10474.0, "BOROUGH": "BX" }, "geometry": { "type": "Point", "coordinates": [ -73.885511605029691, 40.815595040148125 ] } },
{ "type": "Feature", "properties": { "EC_NAME": "LEHMAN COLLEGE", "ADDRESS": "250 BEDFORD PARK BLVD W", "CITY": "BRONX", "ZIP_CODE": 10468.0, "BOROUGH": "BX" }, "geometry": { "type": "Point", "coordinates": [ -73.893007383339224, 40.874668279588256 ] } },
{ "type": "Feature", "properties": { "EC_NAME": "BX COMMUNITY COLLEGE", "ADDRESS": "80 W 181ST STREET", "CITY": "BRONX", "ZIP_CODE": 10453.0, "BOROUGH": "BX" }, "geometry": { "type": "Point", "coordinates": [ -73.910229693219378, 40.857218969672047 ] } },
{ "type": "Feature", "properties": { "EC_NAME": "FRANKLIN D. ROOSEVELT HS", "ADDRESS": "5800 20 AVENUE", "CITY": "BROOKLYN", "ZIP_CODE": 11204.0, "BOROUGH": "BK" }, "geometry": { "type": "Point", "coordinates": [ -73.981854808431649, 40.620904539015235 ] } },
{ "type": "Feature", "properties": { "EC_NAME": "CLARA BARTON HS", "ADDRESS": "901 CLASSON AVENUE", "CITY": "BROOKLYN", "ZIP_CODE": 11225.0, "BOROUGH": "BK" }, "geometry": { "type": "Point", "coordinates": [ -73.96135754687738, 40.669252100401785 ] } },
{ "type": "Feature", "properties": { "EC_NAME": "PS 327", "ADDRESS": "111 BRISTOL STREET", "CITY": "BROOKLYN", "ZIP_CODE": 11212.0, "BOROUGH": "BK" }, "geometry": { "type": "Point", "coordinates": [ -73.9120729217708, 40.668363381859415 ] } },
{ "type": "Feature", "properties": { "EC_NAME": "FRANKLIN K. LANE HS", "ADDRESS": "999 JAMAICA AVENUE", "CITY": "BROOKLYN", "ZIP_CODE": 11208.0, "BOROUGH": "BK" }, "geometry": { "type": "Point", "coordinates": [ -73.868932075054914, 40.692737157293671 ] } },
{ "type": "Feature", "properties": { "EC_NAME": "PS 80 PETRIDES COMPLEX", "ADDRESS": "715 OCEAN TERRACE", "CITY": "STATEN ISLAND", "ZIP_CODE": 10301.0, "BOROUGH": "SI" }, "geometry": { "type": "Point", "coordinates": [ -74.105011657765715, 40.608350557167945 ] } },
{ "type": "Feature", "properties": { "EC_NAME": "LOUIS D. BRANDEIS HS", "ADDRESS": "145 WEST 84 STREET", "CITY": "NEW YORK", "ZIP_CODE": 10024.0, "BOROUGH": "MN" }, "geometry": { "type": "Point", "coordinates": [ -73.97435707300933, 40.78593627698563 ] } },
{ "type": "Feature", "properties": { "EC_NAME": "IS 90", "ADDRESS": "21 JUMEL PLACE", "CITY": "NEW YORK", "ZIP_CODE": 10032.0, "BOROUGH": "MN" }, "geometry": { "type": "Point", "coordinates": [ -73.935822085166336, 40.839397304272332 ] } },
{ "type": "Feature", "properties": { "EC_NAME": "G. WASHINGTON HS", "ADDRESS": "549 AUDOBON AVENUE", "CITY": "NEW YORK", "ZIP_CODE": 10040.0, "BOROUGH": "MN" }, "geometry": { "type": "Point", "coordinates": [ -73.926227300598498, 40.855600641021155 ] } },
{ "type": "Feature", "properties": { "EC_NAME": "CITY COLLEGE", "ADDRESS": "181 CONVENT AVE", "CITY": "NEW YORK", "ZIP_CODE": 10031.0, "BOROUGH": "MN" }, "geometry": { "type": "Point", "coordinates": [ -73.950464071038112, 40.819542764508874 ] } },
{ "type": "Feature", "properties": { "EC_NAME": "HUNTER COLLEGE", "ADDRESS": "695 PARK AVE", "CITY": "NEW YORK", "ZIP_CODE": 10065.0, "BOROUGH": "MN" }, "geometry": { "type": "Point", "coordinates": [ -73.965036379784337, 40.768697894096277 ] } },
{ "type": "Feature", "properties": { "EC_NAME": "JOHN JAY COLLEGE", "ADDRESS": "445 W 59TH ST", "CITY": "NEW YORK", "ZIP_CODE": 10019.0, "BOROUGH": "MN" }, "geometry": { "type": "Point", "coordinates": [ -73.986646586429728, 40.770356917484307 ] } },
{ "type": "Feature", "properties": { "EC_NAME": "BAYSIDE HS", "ADDRESS": "32-24 CORPORAL KENNEDY STREET", "CITY": "BAYSIDE", "ZIP_CODE": 11361.0, "BOROUGH": "QN" }, "geometry": { "type": "Point", "coordinates": [ -73.780786900913142, 40.771457872051343 ] } },
{ "type": "Feature", "properties": { "EC_NAME": "WILLIAM C. BRYANT HS", "ADDRESS": "48-10 31 AVENUE", "CITY": "LONG ISLAND CITY", "ZIP_CODE": 11103.0, "BOROUGH": "QN" }, "geometry": { "type": "Point", "coordinates": [ -73.910510585259956, 40.757905153495209 ] } },
{ "type": "Feature", "properties": { "EC_NAME": "JHS 185", "ADDRESS": "147-26 25 DRIVE", "CITY": "FLUSHING", "ZIP_CODE": 11354.0, "BOROUGH": "QN" }, "geometry": { "type": "Point", "coordinates": [ -73.81863758133079, 40.774929221483312 ] } },
{ "type": "Feature", "properties": { "EC_NAME": "FLUSHING HS", "ADDRESS": "35-01 UNION STREET", "CITY": "FLUSHING", "ZIP_CODE": 11354.0, "BOROUGH": "QN" }, "geometry": { "type": "Point", "coordinates": [ -73.826637968707232, 40.765081287050812 ] } },
{ "type": "Feature", "properties": { "EC_NAME": "IS 117", "ADDRESS": "300 WILLOUGHBY AVENUE", "CITY": "BROOKLYN", "ZIP_CODE": 11205.0, "BOROUGH": "BK" }, "geometry": { "type": "Point", "coordinates": [ -73.958291918023079, 40.692475611702562 ] } },
{ "type": "Feature", "properties": { "EC_NAME": "AVIATION HS", "ADDRESS": "45-30 36 STREET", "CITY": "LONG ISLAND CITY", "ZIP_CODE": 11101.0, "BOROUGH": "QN" }, "geometry": { "type": "Point", "coordinates": [ -73.929305477672244, 40.743491631039092 ] } },
{ "type": "Feature", "properties": { "EC_NAME": "PS 211", "ADDRESS": "1919 PROSPECT AVENUE", "CITY": "BRONX", "ZIP_CODE": 10457.0, "BOROUGH": "BX" }, "geometry": { "type": "Point", "coordinates": [ -73.889708786515314, 40.843873038594893 ] } },
{ "type": "Feature", "properties": { "EC_NAME": "BARUCH COLLEGE", "ADDRESS": "155 E 24TH ST", "CITY": "NEW YORK", "ZIP_CODE": 10010.0, "BOROUGH": "MN" }, "geometry": { "type": "Point", "coordinates": [ -73.983589566693908, 40.740106367918756 ] } },
{ "type": "Feature", "properties": { "EC_NAME": "NEWTOWN HS", "ADDRESS": "48-01 90 STREET", "CITY": "ELMHURST", "ZIP_CODE": 11373.0, "BOROUGH": "QN" }, "geometry": { "type": "Point", "coordinates": [ -73.874263573928985, 40.740901726487621 ] } },
{ "type": "Feature", "properties": { "EC_NAME": "EVANDER CHILDS HS", "ADDRESS": "800 EAST GUN HILL ROAD", "CITY": "BRONX", "ZIP_CODE": 10467.0, "BOROUGH": "BX" }, "geometry": { "type": "Point", "coordinates": [ -73.861473875341446, 40.8754501518967 ] } },
{ "type": "Feature", "properties": { "EC_NAME": "CURTIS HS", "ADDRESS": "105 HAMILTON AVENUE", "CITY": "STATEN ISLAND", "ZIP_CODE": 10301.0, "BOROUGH": "SI" }, "geometry": { "type": "Point", "coordinates": [ -74.081854509792606, 40.645360437213014 ] } },
{ "type": "Feature", "properties": { "EC_NAME": "IS 51", "ADDRESS": "20 HOUSTON STREET", "CITY": "STATEN ISLAND", "ZIP_CODE": 10302.0, "BOROUGH": "SI" }, "geometry": { "type": "Point", "coordinates": [ -74.145033005647008, 40.622887389395054 ] } },
{ "type": "Feature", "properties": { "EC_NAME": "IS 75", "ADDRESS": "455 HUGUENOT AVENUE", "CITY": "STATEN ISLAND", "ZIP_CODE": 10312.0, "BOROUGH": "SI" }, "geometry": { "type": "Point", "coordinates": [ -74.197199817452642, 40.544286256482494 ] } },
{ "type": "Feature", "properties": { "EC_NAME": "SUSAN E. WAGNER HS", "ADDRESS": "1200 MANOR ROAD", "CITY": "STATEN ISLAND", "ZIP_CODE": 10314.0, "BOROUGH": "SI" }, "geometry": { "type": "Point", "coordinates": [ -74.125250242743363, 40.597669860000281 ] } },
{ "type": "Feature", "properties": { "EC_NAME": "BREAD AND ROSES", "ADDRESS": "6 EDGECOMBE AVENUE", "CITY": "NEW YORK", "ZIP_CODE": 10030.0, "BOROUGH": "MN" }, "geometry": { "type": "Point", "coordinates": [ -73.947397701190809, 40.817307278730866 ] } },
{ "type": "Feature", "properties": { "EC_NAME": "IS 118", "ADDRESS": "154 WEST 93 STREET", "CITY": "NEW YORK", "ZIP_CODE": 10025.0, "BOROUGH": "MN" }, "geometry": { "type": "Point", "coordinates": [ -73.970919163010592, 40.791512318096025 ] } },
{ "type": "Feature", "properties": { "EC_NAME": "IS 88", "ADDRESS": "215 WEST 114 STREET", "CITY": "NEW YORK", "ZIP_CODE": 10026.0, "BOROUGH": "MN" }, "geometry": { "type": "Point", "coordinates": [ -73.954111015351145, 40.802545697544069 ] } },
{ "type": "Feature", "properties": { "EC_NAME": "SEWARD PARK HS", "ADDRESS": "350 GRAND STREET", "CITY": "NEW YORK", "ZIP_CODE": 10002.0, "BOROUGH": "MN" }, "geometry": { "type": "Point", "coordinates": [ -73.989354098807226, 40.717311164580536 ] } },
{ "type": "Feature", "properties": { "EC_NAME": "JULIA RICHMAN ED. COMPLEX", "ADDRESS": "317 EAST 67 STREET", "CITY": "NEW YORK", "ZIP_CODE": 10065.0, "BOROUGH": "MN" }, "geometry": { "type": "Point", "coordinates": [ -73.959887841644132, 40.765586036836993 ] } },
{ "type": "Feature", "properties": { "EC_NAME": "FOREST HILLS HS", "ADDRESS": "67-01 110 STREET", "CITY": "FOREST HILLS", "ZIP_CODE": 11375.0, "BOROUGH": "QN" }, "geometry": { "type": "Point", "coordinates": [ -73.844807020318541, 40.729758669434723 ] } },
{ "type": "Feature", "properties": { "EC_NAME": "IS 187", "ADDRESS": "1171 65 STREET", "CITY": "BROOKLYN", "ZIP_CODE": 11219.0, "BOROUGH": "BK" }, "geometry": { "type": "Point", "coordinates": [ -74.003960755592217, 40.627844506970554 ] } },
{ "type": "Feature", "properties": { "EC_NAME": "PS 189", "ADDRESS": "1100 EAST NEW YORK AVE", "CITY": "BROOKLYN", "ZIP_CODE": 11212.0, "BOROUGH": "BK" }, "geometry": { "type": "Point", "coordinates": [ -73.925721257886082, 40.665447203549448 ] } },
{ "type": "Feature", "properties": { "EC_NAME": "IS 246", "ADDRESS": "72 VERONICA PLACE", "CITY": "BROOKLYN", "ZIP_CODE": 11226.0, "BOROUGH": "BK" }, "geometry": { "type": "Point", "coordinates": [ -73.953373801601813, 40.648518437060787 ] } },
{ "type": "Feature", "properties": { "EC_NAME": "PS 249", "ADDRESS": "18 MARLBOROUGH ROAD", "CITY": "BROOKLYN", "ZIP_CODE": 11226.0, "BOROUGH": "BK" }, "geometry": { "type": "Point", "coordinates": [ -73.966493362984181, 40.649701794298252 ] } },
{ "type": "Feature", "properties": { "EC_NAME": "IS 271", "ADDRESS": "1137 HERKIMER STREET", "CITY": "BROOKLYN", "ZIP_CODE": 11233.0, "BOROUGH": "BK" }, "geometry": { "type": "Point", "coordinates": [ -73.915848181481508, 40.678143021007621 ] } },
{ "type": "Feature", "properties": { "EC_NAME": "IS 136", "ADDRESS": "4004 4TH AVENUE", "CITY": "BROOKLYN", "ZIP_CODE": 11232.0, "BOROUGH": "BK" }, "geometry": { "type": "Point", "coordinates": [ -74.00731288574012, 40.651956247709002 ] } },
{ "type": "Feature", "properties": { "EC_NAME": "BOYS & GIRLS HS", "ADDRESS": "1700 FULTON STREET", "CITY": "BROOKLYN", "ZIP_CODE": 11213.0, "BOROUGH": "BK" }, "geometry": { "type": "Point", "coordinates": [ -73.931621773005233, 40.678907841089611 ] } },
{ "type": "Feature", "properties": { "EC_NAME": "JHS 57", "ADDRESS": "125 STUYVESANT AVENUE", "CITY": "BROOKLYN", "ZIP_CODE": 11221.0, "BOROUGH": "BK" }, "geometry": { "type": "Point", "coordinates": [ -73.933458075997123, 40.691455031306418 ] } },
{ "type": "Feature", "properties": { "EC_NAME": "IS 383", "ADDRESS": "1300 GREENE AVENUE", "CITY": "BROOKLYN", "ZIP_CODE": 11237.0, "BOROUGH": "BK" }, "geometry": { "type": "Point", "coordinates": [ -73.919415379958494, 40.697522939718404 ] } },
{ "type": "Feature", "properties": { "EC_NAME": "BUSHWICK HS", "ADDRESS": "400 IRVING AVENUE", "CITY": "BROOKLYN", "ZIP_CODE": 11237.0, "BOROUGH": "BK" }, "geometry": { "type": "Point", "coordinates": [ -73.911825451699869, 40.696880568538923 ] } },
{ "type": "Feature", "properties": { "EC_NAME": "PS 19", "ADDRESS": "98-02 ROOSEVELT AVE.", "CITY": "CORONA", "ZIP_CODE": 11368.0, "BOROUGH": "QN" }, "geometry": { "type": "Point", "coordinates": [ -73.866978268713524, 40.749005106282461 ] } },
{ "type": "Feature", "properties": { "EC_NAME": "JOHN ADAMS HS", "ADDRESS": "101-01 ROCKAWAY BLVD", "CITY": "OZONE PARK", "ZIP_CODE": 11417.0, "BOROUGH": "QN" }, "geometry": { "type": "Point", "coordinates": [ -73.836986584838797, 40.67881280397917 ] } },
{ "type": "Feature", "properties": { "EC_NAME": "QUEENSBOROUGH COMM COLLEGE", "ADDRESS": "222-05 56TH AVE", "CITY": "OAKLAND GARDENS", "ZIP_CODE": 11364.0, "BOROUGH": "QN" }, "geometry": { "type": "Point", "coordinates": [ -73.756582189510453, 40.755909293267294 ] } },
{ "type": "Feature", "properties": { "EC_NAME": "YORK COLLEGE", "ADDRESS": "94-20 GUY R BREWER BLVD", "CITY": "JAMAICA", "ZIP_CODE": 11451.0, "BOROUGH": "QN" }, "geometry": { "type": "Point", "coordinates": [ -73.796143824376045, 40.701788941560118 ] } },
{ "type": "Feature", "properties": { "EC_NAME": "BELMONT RACETRACK", "ADDRESS": "2150 HEMPSTEAD TPKE", "CITY": "ELMONT", "ZIP_CODE": 11003.0, "BOROUGH": "QN" }, "geometry": { "type": "Point", "coordinates": [ -73.726358773367991, 40.710732096168634 ] } },
{ "type": "Feature", "properties": { "EC_NAME": "QUEENS COLLEGE", "ADDRESS": "65-30 KISSENA BLVD", "CITY": "FLUSHING", "ZIP_CODE": 11367.0, "BOROUGH": "QN" }, "geometry": { "type": "Point", "coordinates": [ -73.815595100225195, 40.737766095476985 ] } },
{ "type": "Feature", "properties": { "EC_NAME": "IS 98", "ADDRESS": "1619 BOSTON ROAD", "CITY": "BRONX", "ZIP_CODE": 10460.0, "BOROUGH": "BX" }, "geometry": { "type": "Point", "coordinates": [ -73.890597928264924, 40.83613718275906 ] } },
{ "type": "Feature", "properties": { "EC_NAME": "PS 102", "ADDRESS": "1827 ARCHER STREET", "CITY": "BRONX", "ZIP_CODE": 10460.0, "BOROUGH": "BX" }, "geometry": { "type": "Point", "coordinates": [ -73.86595451291214, 40.837859464118651 ] } },
{ "type": "Feature", "properties": { "EC_NAME": "PS 306", "ADDRESS": "40 WEST TREMONT AVENUE", "CITY": "BRONX", "ZIP_CODE": 10453.0, "BOROUGH": "BX" }, "geometry": { "type": "Point", "coordinates": [ -73.91073642333906, 40.851559325603098 ] } },
{ "type": "Feature", "properties": { "EC_NAME": "MS - HS 141", "ADDRESS": "660 WEST 237 STREET", "CITY": "BRONX", "ZIP_CODE": 10463.0, "BOROUGH": "BX" }, "geometry": { "type": "Point", "coordinates": [ -73.914290377116515, 40.888126303651866 ] } },
{ "type": "Feature", "properties": { "EC_NAME": "PS 5", "ADDRESS": "564 JACKSON AVENUE", "CITY": "BRONX", "ZIP_CODE": 10455.0, "BOROUGH": "BX" }, "geometry": { "type": "Point", "coordinates": [ -73.908440429736103, 40.813661661655964 ] } },
{ "type": "Feature", "properties": { "EC_NAME": "GROVER CLEVELAND HS", "ADDRESS": "21-27 HIMROD STREET", "CITY": "RIDGEWOOD", "ZIP_CODE": 11385.0, "BOROUGH": "QN" }, "geometry": { "type": "Point", "coordinates": [ -73.908951060601964, 40.711446494459452 ] } }
]
}
